[{"OBJECT_NAME":"HAWK-7B","OBJECT_ID":"2023-054R","EPOCH":"2026-03-09T16:32:12.682752","MEAN_MOTION":15.26206341,"ECCENTRICITY":0.00036614,"INCLINATION":97.2859,"RA_OF_ASC_NODE":316.7839,"ARG_OF_PERICENTER":61.5878,"MEAN_ANOMALY":298.573,"EPHEMERIS_TYPE":0,"CLASSIFICATION_TYPE":"U","NORAD_CAT_ID":56193,"ELEMENT_SET_NO":999,"REV_AT_EPOCH":16184,"BSTAR":0.00031010844,"MEAN_MOTION_DOT":7.955e-5,"MEAN_MOTION_DDOT":0},{"OBJECT_NAME":"STARLINK-30263","OBJECT_ID":"2023-122L","EPOCH":"2026-03-09T10:41:15.655776","MEAN_MOTION":15.267389,"ECCENTRICITY":0.00012868,"INCLINATION":43.0011,"RA_OF_ASC_NODE":93.5321,"ARG_OF_PERICENTER":265.2703,"MEAN_ANOMALY":94.8002,"EPHEMERIS_TYPE":0,"CLASSIFICATION_TYPE":"U","NORAD_CAT_ID":57642,"ELEMENT_SET_NO":999,"REV_AT_EPOCH":14217,"BSTAR":2.930359e-5,"MEAN_MOTION_DOT":5.26e-6,"MEAN_MOTION_DDOT":0}]
